     2.11           N: GPS NAV DATA                         RINEX VERSION / TYPE
teqc  2019Feb25                         20221121 12:23:44UTCPGM / RUN BY / DATE
OSX ker:10.11.6|Core i5|gcc 4.3 -m64|OSX ker:10.10+|=+      COMMENT
    6.5193D-09  2.2352D-08 -5.9605D-08 -1.1921D-07          ION ALPHA
    8.6016D+04  9.8304D+04 -6.5536D+04 -5.2429D+05          ION BETA
   -1.862645149231D-09-7.993605777301D-15   233472     1534 DELTA-UTC: A0,A1,T,W
                                                            END OF HEADER
24 09  5 30 23 59 44.0 1.929961144924D-04 2.955857780762D-12 0.000000000000D+00
    6.000000000000D+01 5.000000000000D+01 4.722339561541D-09 2.618567617395D+00
    2.624467015266D-06 6.704825325869D-03 7.165595889092D-06 5.153675745010D+03
    6.047840000000D+05-2.421438694000D-08-3.484195899202D-01 5.401670932770D-08
    9.508317438330D-01 2.384375000000D+02-6.497435532041D-01-8.108909197188D-09
   -1.035757429169D-11 1.000000000000D+00 1.533000000000D+03 0.000000000000D+00
    2.000000000000D+00 0.000000000000D+00-1.396983861923D-09 6.000000000000D+01
    5.976180000000D+05 4.000000000000D+00
19 09  5 30 23 59 44.0 2.407142892480D-05-1.250555214938D-12 0.000000000000D+00
    4.000000000000D+00-1.281250000000D+01 4.564475843026D-09 7.858566258314D-01
   -7.990747690201D-07 5.625542136841D-03 1.106783747673D-05 5.153612699509D+03
    6.047840000000D+05 1.061707735062D-07-1.372941403743D+00 2.048909664154D-08
    9.570790184570D-01 1.576875000000D+02-3.585384655377D-01-8.045692278235D-09
   -1.035757429169D-10 1.000000000000D+00 1.533000000000D+03 0.000000000000D+00
    2.000000000000D+00 0.000000000000D+00-1.443549990654D-08 4.000000000000D+00
    6.030060000000D+05 4.000000000000D+00
10 09  5 30 23 59 44.0-1.678382977843D-05-5.684341886081D-13 0.000000000000D+00
    1.100000000000D+01-5.656250000000D+00 4.643764860017D-09 1.303094798443D+00
   -2.607703208923D-07 8.588585886173D-03 6.327405571938D-06 5.153607217789D+03
    6.047840000000D+05-1.043081283569D-07 6.719766822746D-01-2.421438694000D-08
    9.584838279673D-01 2.587812500000D+02 6.267385812404D-01-8.283202171476D-09
   -3.317995350682D-10 1.000000000000D+00 1.533000000000D+03 0.000000000000D+00
    2.000000000000D+00 0.000000000000D+00-2.793967723846D-09 1.100000000000D+01
    5.993580000000D+05 4.000000000000D+00
